H1 CPF 01  gfz 2021 01 07 01  5071 tandemx   
H2 1003001  6202 36605    2021 01 07 00 59 42 2021 01 12 00 00 42   120 1 1  0 0 0
H9
10 0 59222  16542.000000  0   -5241830.302  -2570131.992  -3665362.800
10 0 59222  16662.000000  0   -5708661.517  -2583029.824  -2871708.550
10 0 59222  16782.000000  0   -6075755.191  -2543605.720  -2027643.223
10 0 59222  16902.000000  0   -6335715.859  -2454314.217  -1147949.890
10 0 59222  17022.000000  0   -6483073.292  -2318600.615   -248069.550
10 0 59222  17142.000000  0   -6514404.712  -2140808.829    656174.944
10 0 59222  17262.000000  0   -6428417.522  -1926069.894   1548864.955
10 0 59222  17382.000000  0   -6225988.484  -1680174.086   2414276.095
10 0 59222  17502.000000  0   -5910158.007  -1409430.104   3237163.916
10 0 59222  17622.000000  0   -5486082.236  -1120514.568   4003040.047
10 0 59222  17742.000000  0   -4960940.580   -820315.642   4698433.433
10 0 59222  17862.000000  0   -4343804.028   -515775.579   5311127.227
10 0 59222  17982.000000  0   -3645470.455   -213735.998   5830371.902
10 0 59222  18102.000000  0   -2878266.759     79211.661   6247071.151
10 0 59222  18222.000000  0   -2055823.156    356866.311   6553935.648
10 0 59222  18342.000000  0   -1192825.473    613544.357   6745604.460
10 0 59222  18462.000000  0    -304750.006    844193.639   6818732.789
10 0 59222  18582.000000  0     592414.220   1044491.280   6772045.977
10 0 59222  18702.000000  0    1482452.265   1210924.207   6606360.303
10 0 59222  18822.000000  0    2349215.441   1340851.190   6324569.540
10 0 59222  18942.000000  0    3176913.754   1432544.720   5931597.917
10 0 59222  19062.000000  0    3950405.825   1485212.612   5434319.427
10 0 59222  19182.000000  0    4655478.758   1498998.802   4841442.645
10 0 59222  19302.000000  0    5279114.827   1474964.208   4163365.927
10 0 59222  19422.000000  0    5809742.407   1415047.047   3411999.537
10 0 59222  19542.000000  0    6237459.704   1322003.702   2600556.246
10 0 59222  19662.000000  0    6554228.563   1199329.846   1743318.776
10 0 59222  19782.000000  0    6754034.612   1051165.862    855383.965
10 0 59222  19902.000000  0    6833007.139    882187.384    -47609.831
10 0 59222  20022.000000  0    6789497.521    697483.990   -949766.751
10 0 59222  20142.000000  0    6624110.964    502429.064  -1835222.946
10 0 59222  20262.000000  0    6339692.912    302543.922  -2688432.732
10 0 59222  20382.000000  0    5941271.788    103360.441  -3494447.060
10 0 59222  20502.000000  0    5435959.024    -89714.477  -4239178.464
10 0 59222  20622.000000  0    4832808.440   -271529.148  -4909646.502
10 0 59222  20742.000000  0    4142640.990   -437308.624  -5494197.755
10 0 59222  20862.000000  0    3377841.059   -582765.435  -5982700.053
10 0 59222  20982.000000  0    2552126.534   -704197.911  -6366708.664
10 0 59222  21102.000000  0    1680297.874   -798572.707  -6639600.258
10 0 59222  21222.000000  0     777973.521   -863591.628  -6796675.962
10 0 59222  21342.000000  0    -138686.807   -897741.426  -6835234.437
10 0 59222  21462.000000  0   -1053265.769   -900325.045  -6754612.315
10 0 59222  21582.000000  0   -1949375.191   -871475.186  -6556194.903
10 0 59222  21702.000000  0   -2810943.504   -812149.039  -6243394.272
10 0 59222  21822.000000  0   -3622496.918   -724105.017  -5821596.173
10 0 59222  21942.000000  0   -4369434.520   -609861.621  -5298078.719
10 0 59222  22062.000000  0   -5038292.880   -472638.492  -4681897.742
10 0 59222  22182.000000  0   -5616993.214   -316281.270  -3983741.799
10 0 59222  22302.000000  0   -6095069.162   -145171.125  -3215757.627
10 0 59222  22422.000000  0   -6463867.775     35880.180  -2391345.658
10 0 59222  22542.000000  0   -6716719.527    221746.570  -1524930.632
10 0 59222  22662.000000  0   -6849072.827    407113.946   -631708.886
10 0 59222  22782.000000  0   -6858586.836    586611.863    272624.099
10 0 59222  22902.000000  0   -6745178.926    754948.411   1172155.885
10 0 59222  23022.000000  0   -6511029.294    907044.358   2051044.766
10 0 59222  23142.000000  0   -6160539.670   1038163.120   2893808.350
10 0 59222  23262.000000  0   -5700246.187   1144033.187   3685605.175
10 0 59222  23382.000000  0   -5138689.175   1220959.626   4412502.145
10 0 59222  23502.000000  0   -4486244.932   1265922.198   5061722.261
10 0 59222  23622.000000  0   -3754924.139   1276657.352   5621868.496
10 0 59222  23742.000000  0   -2958142.282   1251722.957   6083121.219
10 0 59222  23862.000000  0   -2110465.952   1190544.128   6437406.834
10 0 59222  23982.000000  0   -1227339.396   1093439.903   6678533.434
10 0 59222  24102.000000  0    -324799.426    961629.291   6802291.577
10 0 59222  24222.000000  0     580815.902    797217.375   6806522.448
10 0 59222  24342.000000  0    1473161.950    603161.548   6691152.928
10 0 59222  24462.000000  0    2336181.192    383218.760   6458196.860
10 0 59222  24582.000000  0    3154391.517    141874.083   6111723.036
10 0 59222  24702.000000  0    3913165.984   -115748.593   5657789.023
10 0 59222  24822.000000  0    4598997.671   -383992.168   5104340.594
10 0 59222  24942.000000  0    5199745.844   -656786.046   4461078.732
10 0 59222  25062.000000  0    5704858.798   -927778.300   3739294.623
10 0 59222  25182.000000  0    6105569.228  -1190477.544   2951674.855
10 0 59222  25302.000000  0    6395056.268  -1438401.107   2112078.010
10 0 59222  25422.000000  0    6568570.254  -1665225.404   1235287.725
10 0 59222  25542.000000  0    6623516.902  -1864936.026    336747.249
10 0 59222  25662.000000  0    6559499.007  -2031974.227   -567720.876
10 0 59222  25782.000000  0    6378312.227  -2161373.390  -1462202.835
10 0 59222  25902.000000  0    6083897.308  -2248884.238  -2330982.215
10 0 59222  26022.000000  0    5682248.581  -2291084.404  -3158823.162
10 0 59222  26142.000000  0    5181282.902  -2285469.952  -3931240.890
10 0 59222  26262.000000  0    4590673.944  -2230527.295  -4634755.180
10 0 59222  26382.000000  0    3921655.017  -2125784.145  -5257122.967
10 0 59222  26502.000000  0    3186794.883  -1971838.358  -5787544.300
10 0 59222  26622.000000  0    2399754.986  -1770364.298  -6216838.813
10 0 59222  26742.000000  0    1575033.249  -1524097.299  -6537594.500
10 0 59222  26862.000000  0     727695.753  -1236796.234  -6744285.208
10 0 59222  26982.000000  0    -126895.633   -913186.129  -6833355.395
10 0 59222  27102.000000  0    -973356.271   -558881.191  -6803274.133
10 0 59222  27222.000000  0   -1796549.052   -180289.623  -6654558.752
10 0 59222  27342.000000  0   -2581849.101    215499.644  -6389766.114
10 0 59222  27462.000000  0   -3315397.356    620845.414  -6013452.928
10 0 59222  27582.000000  0   -3984341.745   1027697.165  -5532106.747
10 0 59222  27702.000000  0   -4577063.552   1427749.883  -4954045.063
10 0 59222  27822.000000  0   -5083383.841   1812609.689  -4289284.126
10 0 59222  27942.000000  0   -5494746.296   2173967.334  -3549375.468
10 0 59222  28062.000000  0   -5804371.182   2503774.044  -2747213.753
10 0 59222  28182.000000  0   -6007378.577   2794417.478  -1896817.904
10 0 59222  28302.000000  0   -6100876.335   3038893.587  -1013087.789
10 0 59222  28422.000000  0   -6084009.637   3230970.173   -111540.811
10 0 59222  28542.000000  0   -5957970.296   3365337.011    791966.892
10 0 59222  28662.000000  0   -5725963.366   3437738.257   1681528.270
10 0 59222  28782.000000  0   -5393132.664   3445084.441   2541474.396
10 0 59222  28902.000000  0   -4966447.542   3385540.387   3356658.677
10 0 59222  29022.000000  0   -4454554.138   3258587.012   4112730.957
10 0 59222  29142.000000  0   -3867593.876   3065055.058   4796394.608
10 0 59222  29262.000000  0   -3216996.109   2807130.953   5395640.906
10 0 59222  29382.000000  0   -2515248.706   2488335.800   5899959.324
10 0 59222  29502.000000  0   -1775651.450   2113476.373   6300517.988
10 0 59222  29622.000000  0   -1012058.477   1688570.024   6590312.477
10 0 59222  29742.000000  0    -238616.345   1220745.651   6764280.573
10 0 59222  29862.000000  0     530497.610    718122.333   6819385.385
10 0 59222  29982.000000  0    1281334.550    189668.091   6754664.791
10 0 59222  30102.000000  0    2000425.866   -354959.372   6571247.248
10 0 59222  30222.000000  0    2675024.038   -905588.626   6272334.193
10 0 59222  30342.000000  0    3293329.435  -1451723.542   5863148.386
10 0 59222  30462.000000  0    3844700.116  -1982743.045   5350848.325
10 0 59222  30582.000000  0    4319839.096  -2488107.834   4744408.070
10 0 59222  30702.000000  0    4710956.607  -2957570.537   4054466.336
10 0 59222  30822.000000  0    5011905.177  -3381386.232   3293144.356
10 0 59222  30942.000000  0    5218283.470  -3750517.007   2473833.502
10 0 59222  31062.000000  0    5327504.460  -4056825.665   1610957.176
10 0 59222  31182.000000  0    5338827.175  -4293255.068    719712.659
10 0 59222  31302.000000  0    5253351.776  -4453987.354   -184203.361
10 0 59222  31422.000000  0    5073977.265  -4534579.797  -1084879.691
10 0 59222  31542.000000  0    4805322.364  -4532072.444  -1966479.883
10 0 59222  31662.000000  0    4453611.944  -4445065.419  -2813528.633
10 0 59222  31782.000000  0    4026532.430  -4273764.252  -3611188.733
10 0 59222  31902.000000  0    3533060.414  -4019992.389  -4345523.348
10 0 59222  32022.000000  0    2983269.046  -3687171.108  -5003737.821
10 0 59222  32142.000000  0    2388117.098  -3280268.408  -5574396.824
10 0 59222  32262.000000  0    1759227.403  -2805718.986  -6047612.943
10 0 59222  32382.000000  0    1108659.542  -2271318.570  -6415207.772
10 0 59222  32502.000000  0     448678.791  -1686092.145  -6670843.686
10 0 59222  32622.000000  0    -208472.758  -1060139.230  -6810122.166
10 0 59222  32742.000000  0    -850798.305   -404460.649  -6830650.165
10 0 59222  32862.000000  0   -1466759.682    269230.886  -6732076.298
10 0 59222  32982.000000  0   -2045479.960    948714.655  -6516095.601
99
